     2              NAVIGATION DATA                         RINEX VERSION / TYPE
CCRINEXN V1.6.0 UX  CDDIS               09-JAN-19 17:31     PGM / RUN BY / DATE 
IGS BROADCAST EPHEMERIS FILE                                COMMENT             
    0.7451D-08 -0.1490D-07 -0.5960D-07  0.1192D-06          ION ALPHA           
    0.9011D+05 -0.6554D+05 -0.1311D+06  0.4588D+06          ION BETA            
   -0.279396772385D-08-0.106581410364D-13   405504     2035 DELTA-UTC: A0,A1,T,W
    18                                                      LEAP SECONDS        
                                                            END OF HEADER       
 1 19  1  8  0  0  0.0-0.141647644341D-03-0.625277607469D-11 0.000000000000D+00
    0.540000000000D+02-0.126656250000D+03 0.404552569222D-08-0.171403387923D+01
   -0.649504363537D-05 0.825967220589D-02 0.573880970478D-05 0.515366588211D+04
    0.172800000000D+06 0.800937414169D-07-0.473001942247D+00-0.949949026108D-07
    0.974215361420D+00 0.275125000000D+03 0.691023903462D+00-0.788818610431D-08
   -0.266439675878D-09 0.100000000000D+01 0.203500000000D+04 0.000000000000D+00
    0.200000000000D+01 0.000000000000D+00 0.558793544769D-08 0.540000000000D+02
    0.172800000000D+06 0.000000000000D+00 0.000000000000D+00 0.000000000000D+00
 2 19  1  8  0  0  0.0-0.107143539935D-03-0.101181285572D-10 0.000000000000D+00
    0.350000000000D+02-0.109125000000D+03 0.475734101949D-08-0.138439517163D+01
   -0.535696744919D-05 0.187273650663D-01 0.425614416599D-05 0.515362800980D+04
    0.172800000000D+06 0.214204192162D-06-0.538811253526D+00 0.506639480591D-06
    0.953273531120D+00 0.292781250000D+03-0.179445329777D+01-0.834034740895D-08
   -0.350371737246D-09 0.100000000000D+01 0.203500000000D+04 0.000000000000D+00
    0.200000000000D+01 0.000000000000D+00-0.204890966415D-07 0.350000000000D+02
    0.167550000000D+06 0.400000000000D+01 0.000000000000D+00 0.000000000000D+00
 3 19  1  8  0  0  0.0 0.175666995347D-03 0.261479726760D-11 0.000000000000D+00
    0.750000000000D+02-0.350312500000D+02 0.409409928182D-08-0.279302438145D+01
   -0.176578760147D-05 0.186885031871D-02 0.113081187010D-04 0.515361082459D+04
    0.172800000000D+06-0.335276126862D-07 0.569108475664D+00 0.465661287308D-07
    0.962347774973D+00 0.161156250000D+03 0.685358416729D+00-0.766781926842D-08
    0.471805372548D-09 0.100000000000D+01 0.203500000000D+04 0.000000000000D+00
    0.200000000000D+01 0.000000000000D+00 0.232830643654D-08 0.750000000000D+02
    0.172800000000D+06 0.000000000000D+00 0.000000000000D+00 0.000000000000D+00
 5 19  1  8  0  0  0.0 0.726897269487D-06 0.113686837722D-12 0.000000000000D+00
    0.490000000000D+02-0.486562500000D+02 0.447411493627D-08 0.120841730631D+01
   -0.239536166191D-05 0.555539084598D-02 0.109430402517D-04 0.515361122513D+04
    0.172800000000D+06-0.614672899246D-07 0.544189588458D+00 0.260770320892D-07
    0.949242343319D+00 0.164906250000D+03 0.722418618447D+00-0.790854370830D-08
    0.342514267094D-09 0.100000000000D+01 0.203500000000D+04 0.000000000000D+00
    0.200000000000D+01 0.000000000000D+00-0.111758708954D-07 0.490000000000D+02
    0.165618000000D+06 0.400000000000D+01 0.000000000000D+00 0.000000000000D+00
 6 19  1  8  0  0  0.0 0.301295425743D-03-0.738964445190D-11 0.000000000000D+00
    0.570000000000D+02-0.122375000000D+03 0.423160483476D-08-0.141204608907D+01
   -0.630319118500D-05 0.131253595464D-02 0.516511499882D-05 0.515377431107D+04
    0.172800000000D+06 0.931322574616D-08-0.481295820246D+00 0.298023223877D-07
    0.973885555317D+00 0.288562500000D+03-0.121703329985D+01-0.809247994142D-08
   -0.296083761649D-09 0.100000000000D+01 0.203500000000D+04 0.000000000000D+00
    0.200000000000D+01 0.000000000000D+00 0.465661287308D-08 0.570000000000D+02
    0.168270000000D+06 0.400000000000D+01 0.000000000000D+00 0.000000000000D+00
 7 19  1  8  0  0  0.0 0.558635219932D-04-0.704858393874D-11 0.000000000000D+00
    0.360000000000D+02-0.100312500000D+02 0.468698102552D-08-0.234207743460D+01
   -0.759959220886D-06 0.121356771560D-01 0.856630504131D-05 0.515361717987D+04
    0.172800000000D+06 0.176951289177D-06 0.267889733202D+01-0.158324837685D-06
    0.956706331299D+00 0.211312500000D+03-0.247939148104D+01-0.783996956244D-08
   -0.405016881144D-09 0.100000000000D+01 0.203500000000D+04 0.000000000000D+00
    0.200000000000D+01 0.000000000000D+00-0.111758708954D-07 0.360000000000D+02
    0.172800000000D+06 0.000000000000D+00 0.000000000000D+00 0.000000000000D+00
 8 19  1  8  0  0  0.0-0.128291081637D-03-0.125055521494D-11 0.000000000000D+00
    0.890000000000D+02 0.474687500000D+02 0.457019044831D-08 0.839880669064D+00
    0.239163637161D-05 0.408230675384D-02 0.899657607079D-06 0.515367725563D+04
    0.172800000000D+06 0.108033418655D-06-0.153937608535D+01-0.260770320892D-07
    0.969788485000D+00 0.362343750000D+03-0.389509548705D+00-0.837177704938D-08
    0.339299838226D-10 0.100000000000D+01 0.203500000000D+04 0.000000000000D+00
    0.200000000000D+01 0.000000000000D+00 0.512227416039D-08 0.890000000000D+02
    0.172800000000D+06 0.000000000000D+00 0.000000000000D+00 0.000000000000D+00
 9 19  1  8  0  0  0.0 0.474386848509D-03-0.443378667114D-11 0.000000000000D+00
    0.980000000000D+02 0.162812500000D+02 0.504985320380D-08 0.873441308874D+00
    0.810250639915D-06 0.148632400669D-02 0.538676977158D-05 0.515374711037D+04
    0.172800000000D+06 0.931322574616D-08 0.160197719827D+01-0.186264514923D-08
    0.952006360258D+00 0.268468750000D+03 0.169286620510D+01-0.823355724642D-08
    0.327513642258D-09 0.100000000000D+01 0.203500000000D+04 0.000000000000D+00
    0.200000000000D+01 0.000000000000D+00 0.139698386192D-08 0.980000000000D+02
    0.165618000000D+06 0.400000000000D+01 0.000000000000D+00 0.000000000000D+00
10 19  1  8  0  0  0.0 0.139325391501D-03-0.625277607469D-11 0.000000000000D+00
    0.330000000000D+02-0.361250000000D+02 0.415303013323D-08 0.258002801636D+01
   -0.180862843990D-05 0.420511234552D-02 0.108685344458D-04 0.515367020035D+04
    0.172800000000D+06-0.800937414169D-07 0.565795993183D+00-0.558793544769D-07
    0.962399149730D+00 0.170406250000D+03-0.279162609656D+01-0.769639201419D-08
    0.437518224390D-09 0.100000000000D+01 0.203500000000D+04 0.000000000000D+00
    0.200000000000D+01 0.000000000000D+00 0.186264514923D-08 0.330000000000D+02
    0.165618000000D+06 0.400000000000D+01 0.000000000000D+00 0.000000000000D+00
11 19  1  8  0  0  0.0-0.678389798850D-03 0.511590769747D-11 0.000000000000D+00
    0.640000000000D+02-0.806250000000D+02 0.567773650317D-08-0.239126369112D+01
   -0.387243926525D-05 0.166249433532D-01 0.637024641037D-06 0.515368212700D+04
    0.172800000000D+06 0.135973095894D-06-0.914774090116D+00 0.184401869774D-06
    0.907965966347D+00 0.337250000000D+03 0.185347773398D+01-0.865750315881D-08
   -0.233223995672D-09 0.100000000000D+01 0.203500000000D+04 0.000000000000D+00
    0.200000000000D+01 0.000000000000D+00-0.121071934700D-07 0.640000000000D+02
    0.172800000000D+06 0.000000000000D+00 0.000000000000D+00 0.000000000000D+00
13 19  1  8  0  0  0.0-0.790641643107D-04 0.125055521494D-11 0.000000000000D+00
    0.300000000000D+02 0.778125000000D+01 0.477377027526D-08-0.656137279094D+00
    0.435858964920D-06 0.373916584067D-02 0.538863241673D-05 0.515365610123D+04
    0.172800000000D+06-0.242143869400D-07 0.173714900600D+01 0.149011611938D-07
    0.967560146238D+00 0.281062500000D+03 0.138908606234D+01-0.810212320024D-08
    0.220009164265D-09 0.100000000000D+01 0.203500000000D+04 0.000000000000D+00
    0.200000000000D+01 0.000000000000D+00-0.111758708954D-07 0.300000000000D+02
    0.165618000000D+06 0.400000000000D+01 0.000000000000D+00 0.000000000000D+00
14 19  1  8  0  0  0.0-0.935043208301D-04 0.568434188608D-12 0.000000000000D+00
    0.440000000000D+02 0.146250000000D+02 0.498377916713D-08 0.227549760875D+00
    0.678002834320D-06 0.100247587543D-01 0.529177486896D-05 0.515365164566D+04
    0.172800000000D+06-0.128522515297D-06 0.169368629942D+01 0.800937414169D-07
    0.960119841440D+00 0.278781250000D+03-0.194927512940D+01-0.836392022308D-08
    0.197865390739D-09 0.100000000000D+01 0.203500000000D+04 0.000000000000D+00
    0.200000000000D+01 0.000000000000D+00-0.977888703346D-08 0.440000000000D+02
    0.000000000000D+00 0.000000000000D+00 0.000000000000D+00 0.000000000000D+00
15 19  1  8  0  0  0.0-0.333150848746D-03 0.159161572810D-11 0.000000000000D+00
    0.980000000000D+02 0.210000000000D+02 0.564630661991D-08-0.425582004227D+00
    0.130571424961D-05 0.111762776505D-01 0.561960041523D-05 0.515361103630D+04
    0.172800000000D+06 0.521540641785D-07 0.152548239540D+01 0.128522515297D-06
    0.927540129164D+00 0.252875000000D+03 0.755064919828D+00-0.867678999456D-08
    0.398588031363D-09 0.100000000000D+01 0.203500000000D+04 0.000000000000D+00
    0.280000000000D+01 0.000000000000D+00-0.111758708954D-07 0.980000000000D+02
    0.165618000000D+06 0.400000000000D+01 0.000000000000D+00 0.000000000000D+00
16 19  1  8  0  0  0.0-0.113681890070D-04-0.227373675443D-11 0.000000000000D+00
    0.380000000000D+02 0.112093750000D+03 0.385087473021D-08 0.138966939360D+01
    0.610016286373D-05 0.103940907866D-01 0.934116542339D-05 0.515376242638D+04
    0.172800000000D+06-0.689178705216D-07-0.248864624898D+01 0.165775418282D-06
    0.984987372906D+00 0.213906250000D+03 0.524526629440D+00-0.774996600228D-08
   -0.671456570900D-10 0.100000000000D+01 0.203500000000D+04 0.000000000000D+00
    0.200000000000D+01 0.000000000000D+00-0.107102096081D-07 0.380000000000D+02
    0.172800000000D+06 0.000000000000D+00 0.000000000000D+00 0.000000000000D+00
